{
  "type": "FeatureCollection",
  "features": [
    {
      "type": "Feature",
      "properties": {
        "norad_id": 36274,
        "name": "FENGYUN 1C DEB",
        "group": "fengyun-1c-debris",
        "lat": -7.426469585804825,
        "lon": 59.591178329084194,
        "alt_km": 836.6890355007708,
        "timestamp": "2025-12-10T07:43:55.067500+00:00",
        "meta_object_name": "FENGYUN 1C DEB",
        "meta_object_id": "1999-025DXB",
        "meta_epoch": "2025-12-09T11:35:55.514688",
        "meta_mean_motion": 14.23402311,
        "meta_eccentricity": 0.00622561,
        "meta_inclination": 99.139,
        "meta_ra_of_asc_node": 57.5181,
        "meta_arg_of_pericenter": 239.4806,
        "meta_mean_anomaly": 136.1937,
        "meta_ephemeris_type": 0,
        "meta_classification_type": "U",
        "meta_norad_cat_id": 36274,
        "meta_element_set_no": 999,
        "meta_rev_at_epoch": 62939,
        "meta_bstar": 0.0044809329,
        "meta_mean_motion_dot": 0.00010342,
        "meta_mean_motion_ddot": 0,
        "tle_line1": "1 36274U 99025DXB 25343.48328142  .00010342  00000+0  44809-2 0  9992",
        "tle_line2": "2 36274  99.1390  57.5181 0062256 239.4806 136.1937 14.23402311629395"
      },
      "geometry": {
        "type": "Point",
        "coordinates": [
          59.591178329084194,
          -7.426469585804825
        ]
      }
    },
    {
      "type": "Feature",
      "properties": {
        "norad_id": 36278,
        "name": "FENGYUN 1C DEB",
        "group": "fengyun-1c-debris",
        "lat": -80.39808079474832,
        "lon": -25.66109534007695,
        "alt_km": 801.3654497951711,
        "timestamp": "2025-12-10T07:43:55.067510+00:00",
        "meta_object_name": "FENGYUN 1C DEB",
        "meta_object_id": "1999-025DXF",
        "meta_epoch": "2025-12-04T01:21:08.443872",
        "meta_mean_motion": 14.17353569,
        "meta_eccentricity": 0.00613363,
        "meta_inclination": 99.1236,
        "meta_ra_of_asc_node": 256.1206,
        "meta_arg_of_pericenter": 315.5831,
        "meta_mean_anomaly": 44.0433,
        "meta_ephemeris_type": 0,
        "meta_classification_type": "U",
        "meta_norad_cat_id": 36278,
        "meta_element_set_no": 999,
        "meta_rev_at_epoch": 93353,
        "meta_bstar": 0.0008477729,
        "meta_mean_motion_dot": 1.7e-05,
        "meta_mean_motion_ddot": 0,
        "tle_line1": "1 36278U 99025DXF 25338.05634773  .00001700  00000+0  84777-3 0  9990",
        "tle_line2": "2 36278  99.1236 256.1206 0061336 315.5831  44.0433 14.17353569933530"
      },
      "geometry": {
        "type": "Point",
        "coordinates": [
          -25.66109534007695,
          -80.39808079474832
        ]
      }
    },
    {
      "type": "Feature",
      "properties": {
        "norad_id": 36279,
        "name": "FENGYUN 1C DEB",
        "group": "fengyun-1c-debris",
        "lat": -39.690339392974536,
        "lon": -30.392586686754935,
        "alt_km": 859.0544373101384,
        "timestamp": "2025-12-10T07:43:55.067520+00:00",
        "meta_object_name": "FENGYUN 1C DEB",
        "meta_object_id": "1999-025DXG",
        "meta_epoch": "2025-12-08T04:59:58.612992",
        "meta_mean_motion": 14.147242,
        "meta_eccentricity": 0.00630677,
        "meta_inclination": 98.5605,
        "meta_ra_of_asc_node": 320.3989,
        "meta_arg_of_pericenter": 68.1387,
        "meta_mean_anomaly": 292.6479,
        "meta_ephemeris_type": 0,
        "meta_classification_type": "U",
        "meta_norad_cat_id": 36279,
        "meta_element_set_no": 999,
        "meta_rev_at_epoch": 88975,
        "meta_bstar": 0.00024838235,
        "meta_mean_motion_dot": 4.46e-06,
        "meta_mean_motion_ddot": 0,
        "tle_line1": "1 36279U 99025DXG 25342.20831728  .00000446  00000+0  24838-3 0  9990",
        "tle_line2": "2 36279  98.5605 320.3989 0063067  68.1387 292.6479 14.14724200889752"
      },
      "geometry": {
        "type": "Point",
        "coordinates": [
          -30.392586686754935,
          -39.690339392974536
        ]
      }
    },
    {
      "type": "Feature",
      "properties": {
        "norad_id": 36280,
        "name": "FENGYUN 1C DEB",
        "group": "fengyun-1c-debris",
        "lat": 41.07618434579151,
        "lon": 5.647939891537114,
        "alt_km": 817.3812404617374,
        "timestamp": "2025-12-10T07:43:55.067530+00:00",
        "meta_object_name": "FENGYUN 1C DEB",
        "meta_object_id": "1999-025DXH",
        "meta_epoch": "2025-12-08T20:36:31.756896",
        "meta_mean_motion": 14.09721696,
        "meta_eccentricity": 0.00633707,
        "meta_inclination": 98.7669,
        "meta_ra_of_asc_node": 11.9526,
        "meta_arg_of_pericenter": 76.4242,
        "meta_mean_anomaly": 102.7342,
        "meta_ephemeris_type": 0,
        "meta_classification_type": "U",
        "meta_norad_cat_id": 36280,
        "meta_element_set_no": 999,
        "meta_rev_at_epoch": 86299,
        "meta_bstar": 0.0014880766,
        "meta_mean_motion_dot": 2.619e-05,
        "meta_mean_motion_ddot": 0,
        "tle_line1": "1 36280U 99025DXH 25342.85870089  .00002619  00000+0  14881-2 0  9996",
        "tle_line2": "2 36280  98.7669  11.9526 0063370  76.4242 102.7342 14.09721696862992"
      },
      "geometry": {
        "type": "Point",
        "coordinates": [
          5.647939891537114,
          41.07618434579151
        ]
      }
    },
    {
      "type": "Feature",
      "properties": {
        "norad_id": 36281,
        "name": "FENGYUN 1C DEB",
        "group": "fengyun-1c-debris",
        "lat": 48.95674149311097,
        "lon": -104.40356266812357,
        "alt_km": 941.9734927885729,
        "timestamp": "2025-12-10T07:43:55.067539+00:00",
        "meta_object_name": "FENGYUN 1C DEB",
        "meta_object_id": "1999-025DXJ",
        "meta_epoch": "2025-12-09T12:04:06.856032",
        "meta_mean_motion": 13.60222067,
        "meta_eccentricity": 0.0289694,
        "meta_inclination": 99.2583,
        "meta_ra_of_asc_node": 265.6183,
        "meta_arg_of_pericenter": 119.2294,
        "meta_mean_anomaly": 243.8148,
        "meta_ephemeris_type": 0,
        "meta_classification_type": "U",
        "meta_norad_cat_id": 36281,
        "meta_element_set_no": 999,
        "meta_rev_at_epoch": 84473,
        "meta_bstar": 0.0037377,
        "meta_mean_motion_dot": 3.656e-05,
        "meta_mean_motion_ddot": 0,
        "tle_line1": "1 36281U 99025DXJ 25343.50285713  .00003656  00000+0  37377-2 0  9991",
        "tle_line2": "2 36281  99.2583 265.6183 0289694 119.2294 243.8148 13.60222067844730"
      },
      "geometry": {
        "type": "Point",
        "coordinates": [
          -104.40356266812357,
          48.95674149311097
        ]
      }
    },
    {
      "type": "Feature",
      "properties": {
        "norad_id": 36283,
        "name": "FENGYUN 1C DEB",
        "group": "fengyun-1c-debris",
        "lat": 53.04141615065296,
        "lon": -63.86525394347004,
        "alt_km": 496.21266356068827,
        "timestamp": "2025-12-10T07:43:55.067549+00:00",
        "meta_object_name": "FENGYUN 1C DEB",
        "meta_object_id": "1999-025DXL",
        "meta_epoch": "2025-12-09T02:47:32.160480",
        "meta_mean_motion": 15.05915061,
        "meta_eccentricity": 0.00683492,
        "meta_inclination": 99.4217,
        "meta_ra_of_asc_node": 307.4131,
        "meta_arg_of_pericenter": 61.5319,
        "meta_mean_anomaly": 299.2764,
        "meta_ephemeris_type": 0,
        "meta_classification_type": "U",
        "meta_norad_cat_id": 36283,
        "meta_element_set_no": 999,
        "meta_rev_at_epoch": 66611,
        "meta_bstar": 0.0023687932,
        "meta_mean_motion_dot": 0.00036387,
        "meta_mean_motion_ddot": 0,
        "tle_line1": "1 36283U 99025DXL 25343.11634445  .00036387  00000+0  23688-2 0  9997",
        "tle_line2": "2 36283  99.4217 307.4131 0068349  61.5319 299.2764 15.05915061666112"
      },
      "geometry": {
        "type": "Point",
        "coordinates": [
          -63.86525394347004,
          53.04141615065296
        ]
      }
    },
    {
      "type": "Feature",
      "properties": {
        "norad_id": 36644,
        "name": "FENGYUN 1C DEB",
        "group": "fengyun-1c-debris",
        "lat": -69.7764869509039,
        "lon": -80.45686592310273,
        "alt_km": 951.2902673812468,
        "timestamp": "2025-12-10T07:43:55.067559+00:00",
        "meta_object_name": "FENGYUN 1C DEB",
        "meta_object_id": "1999-025DXN",
        "meta_epoch": "2025-12-06T15:56:19.275936",
        "meta_mean_motion": 13.59167664,
        "meta_eccentricity": 0.02857814,
        "meta_inclination": 98.4234,
        "meta_ra_of_asc_node": 120.1104,
        "meta_arg_of_pericenter": 196.1478,
        "meta_mean_anomaly": 163.0413,
        "meta_ephemeris_type": 0,
        "meta_classification_type": "U",
        "meta_norad_cat_id": 36644,
        "meta_element_set_no": 999,
        "meta_rev_at_epoch": 61485,
        "meta_bstar": 0.0026178612,
        "meta_mean_motion_dot": 2.485e-05,
        "meta_mean_motion_ddot": 0,
        "tle_line1": "1 36644U 99025DXN 25340.66411199  .00002485  00000+0  26179-2 0  9994",
        "tle_line2": "2 36644  98.4234 120.1104 0285781 196.1478 163.0413 13.59167664614851"
      },
      "geometry": {
        "type": "Point",
        "coordinates": [
          -80.45686592310273,
          -69.7764869509039
        ]
      }
    }
  ]
}